ONEWEB-0519             
1 54137U 22138AA  25247.03834153  .00000070  00000+0  14296-3 0  9994
2 54137  87.9282   1.8397 0002023  94.4605 265.6759 13.19725653139095
ONEWEB-0520             
1 54138U 22138AB  25247.30052269 -.00000089  00000+0 -25526-3 0  9995
2 54138  87.9284   1.7914 0001511  90.2985 269.8321 13.19723970139112
ONEWEB-0521             
1 54139U 22138AC  25247.03044270 -.00000020  00000+0 -83057-4 0  9998
2 54139  87.9278   1.8311 0002068  98.2447 261.8921 13.19726114139028
ONEWEB-0522             
1 54140U 22138AD  25247.08572393  .00000046  00000+0  81686-4 0  9999
2 54140  87.9281   1.8214 0001690  98.0343 262.0981 13.19725007139073
ONEWEB-0523             
1 54141U 22138AE  25247.20012068  .00000046  00000+0  82295-4 0  9999
2 54141  87.9293 331.4514 0002530 114.8124 245.3273 13.20770259141555
ONEWEB-0524             
1 54142U 22138AF  25247.18906013  .00000103  00000+0  22110-3 0  9992
2 54142  87.9289 331.4543 0001743 129.1699 230.9589 13.20773029141552
ONEWEB-0525             
1 54143U 22138AG  25247.02885473  .00000040  00000+0  67707-4 0  9994
2 54143  87.9284   1.8539 0001594  92.0306 268.1009 13.19726766139087
ONEWEB-0526             
1 54144U 22138AH  25247.28946107 -.00000250  00000+0 -65615-3 0  9995
2 54144  87.9283   1.7891 0001734  97.9266 262.2064 13.19724882139096
ONEWEB-0529             
1 54145U 22138AJ  25247.21681475  .00000032  00000+0  47895-4 0  9990
2 54145  87.9274   1.8439 0001583  94.1237 266.0077 13.19727238139101
ONEWEB-0531             
1 54146U 22138AK  25247.17484284 -.00000220  00000+0 -57214-3 0  9991
2 54146  87.9283 331.4492 0002383 120.2409 239.8961 13.20771356141558
ONEWEB-0535             
1 54147U 22138AL  25247.02252840  .00000110  00000+0  24301-3 0  9994
2 54147  87.9283   1.8375 0002156 105.3514 254.7857 13.19725017139093
ONEWEB-0536             
1 54148U 22138AM  25247.23797428  .00000055  00000+0  10214-3 0  9990
2 54148  87.9286 331.4835 0002317 126.2508 233.8840 13.20770127141552
ONEWEB-0527             
1 54642U 22166A   25247.19033907  .00000081  00000+0  16400-3 0  9992
2 54642  87.9228 301.0740 0001871  96.5380 263.5967 13.21823673133755
ONEWEB-0528             
1 54643U 22166B   25247.19663922  .00000034  00000+0  51796-4 0  9995
2 54643  87.9230 301.0749 0001806  95.7060 264.4280 13.21829287133768
ONEWEB-0539             
1 54644U 22166C   25247.15726040  .00000098  00000+0  20600-3 0  9992
2 54644  87.9218 301.0515 0002073  91.1558 268.9814 13.21826676133755
ONEWEB-0540             
1 54645U 22166D   25247.16368474 -.00000213  00000+0 -54636-3 0  9994
2 54645  87.9229 301.0868 0002125  90.8844 269.2534 13.21825354133745
ONEWEB-0542             
1 54646U 22166E   25247.16669617  .00000131  00000+0  28475-3 0  9997
2 54646  87.9219 301.0472 0002301  91.1718 268.9679 13.21829164133756
