[{"OBJECT_NAME":"ONEWEB-0519","OBJECT_ID":"2022-138AA","EPOCH":"2025-09-04T00:55:12.708192","MEAN_MOTION":13.19725653,"ECCENTRICITY":0.00020237,"INCLINATION":87.9282,"RA_OF_ASC_NODE":1.8397,"ARG_OF_PERICENTER":94.4605,"MEAN_ANOMALY":265.6759,"EPHEMERIS_TYPE":0,"CLASSIFICATION_TYPE":"U","NORAD_CAT_ID":54137,"ELEMENT_SET_NO":999,"REV_AT_EPOCH":13909,"BSTAR":0.00014296412,"MEAN_MOTION_DOT":7.0e-7,"MEAN_MOTION_DDOT":0},{"OBJECT_NAME":"ONEWEB-0520","OBJECT_ID":"2022-138AB","EPOCH":"2025-09-04T07:12:45.160416","MEAN_MOTION":13.1972397,"ECCENTRICITY":0.00015117,"INCLINATION":87.9284,"RA_OF_ASC_NODE":1.7914,"ARG_OF_PERICENTER":90.2985,"MEAN_ANOMALY":269.8321,"EPHEMERIS_TYPE":0,"CLASSIFICATION_TYPE":"U","NORAD_CAT_ID":54138,"ELEMENT_SET_NO":999,"REV_AT_EPOCH":13911,"BSTAR":-0.0002552641,"MEAN_MOTION_DOT":-8.9e-7,"MEAN_MOTION_DDOT":0},{"OBJECT_NAME":"ONEWEB-0521","OBJECT_ID":"2022-138AC","EPOCH":"2025-09-04T00:43:50.249280","MEAN_MOTION":13.19726114,"ECCENTRICITY":0.00020684,"INCLINATION":87.9278,"RA_OF_ASC_NODE":1.8311,"ARG_OF_PERICENTER":98.2447,"MEAN_ANOMALY":261.8921,"EPHEMERIS_TYPE":0,"CLASSIFICATION_TYPE":"U","NORAD_CAT_ID":54139,"ELEMENT_SET_NO":999,"REV_AT_EPOCH":13902,"BSTAR":-8.3056888e-5,"MEAN_MOTION_DOT":-2.0e-7,"MEAN_MOTION_DDOT":0},{"OBJECT_NAME":"ONEWEB-0522","OBJECT_ID":"2022-138AD","EPOCH":"2025-09-04T02:03:26.547552","MEAN_MOTION":13.19725007,"ECCENTRICITY":0.00016902,"INCLINATION":87.9281,"RA_OF_ASC_NODE":1.8214,"ARG_OF_PERICENTER":98.0343,"MEAN_ANOMALY":262.0981,"EPHEMERIS_TYPE":0,"CLASSIFICATION_TYPE":"U","NORAD_CAT_ID":54140,"ELEMENT_SET_NO":999,"REV_AT_EPOCH":13907,"BSTAR":8.1686082e-5,"MEAN_MOTION_DOT":4.6e-7,"MEAN_MOTION_DDOT":0},{"OBJECT_NAME":"ONEWEB-0523","OBJECT_ID":"2022-138AE","EPOCH":"2025-09-04T04:48:10.426752","MEAN_MOTION":13.20770259,"ECCENTRICITY":0.00025305,"INCLINATION":87.9293,"RA_OF_ASC_NODE":331.4514,"ARG_OF_PERICENTER":114.8124,"MEAN_ANOMALY":245.3273,"EPHEMERIS_TYPE":0,"CLASSIFICATION_TYPE":"U","NORAD_CAT_ID":54141,"ELEMENT_SET_NO":999,"REV_AT_EPOCH":14155,"BSTAR":8.2294596e-5,"MEAN_MOTION_DOT":4.6e-7,"MEAN_MOTION_DDOT":0},{"OBJECT_NAME":"ONEWEB-0524","OBJECT_ID":"2022-138AF","EPOCH":"2025-09-04T04:32:14.795232","MEAN_MOTION":13.20773029,"ECCENTRICITY":0.00017431,"INCLINATION":87.9289,"RA_OF_ASC_NODE":331.4543,"ARG_OF_PERICENTER":129.1699,"MEAN_ANOMALY":230.9589,"EPHEMERIS_TYPE":0,"CLASSIFICATION_TYPE":"U","NORAD_CAT_ID":54142,"ELEMENT_SET_NO":999,"REV_AT_EPOCH":14155,"BSTAR":0.00022109633,"MEAN_MOTION_DOT":1.03e-6,"MEAN_MOTION_DDOT":0},{"OBJECT_NAME":"ONEWEB-0525","OBJECT_ID":"2022-138AG","EPOCH":"2025-09-04T00:41:33.048672","MEAN_MOTION":13.19726766,"ECCENTRICITY":0.00015947,"INCLINATION":87.9284,"RA_OF_ASC_NODE":1.8539,"ARG_OF_PERICENTER":92.0306,"MEAN_ANOMALY":268.1009,"EPHEMERIS_TYPE":0,"CLASSIFICATION_TYPE":"U","NORAD_CAT_ID":54143,"ELEMENT_SET_NO":999,"REV_AT_EPOCH":13908,"BSTAR":6.770741e-5,"MEAN_MOTION_DOT":4.0e-7,"MEAN_MOTION_DDOT":0},{"OBJECT_NAME":"ONEWEB-0526","OBJECT_ID":"2022-138AH","EPOCH":"2025-09-04T06:56:49.436448","MEAN_MOTION":13.19724882,"ECCENTRICITY":0.00017341,"INCLINATION":87.9283,"RA_OF_ASC_NODE":1.7891,"ARG_OF_PERICENTER":97.9266,"MEAN_ANOMALY":262.2064,"EPHEMERIS_TYPE":0,"CLASSIFICATION_TYPE":"U","NORAD_CAT_ID":54144,"ELEMENT_SET_NO":999,"REV_AT_EPOCH":13909,"BSTAR":-0.00065615423,"MEAN_MOTION_DOT":-2.5e-6,"MEAN_MOTION_DDOT":0},{"OBJECT_NAME":"ONEWEB-0529","OBJECT_ID":"2022-138AJ","EPOCH":"2025-09-04T05:12:12.794400","MEAN_MOTION":13.19727238,"ECCENTRICITY":0.00015834,"INCLINATION":87.9274,"RA_OF_ASC_NODE":1.8439,"ARG_OF_PERICENTER":94.1237,"MEAN_ANOMALY":266.0077,"EPHEMERIS_TYPE":0,"CLASSIFICATION_TYPE":"U","NORAD_CAT_ID":54145,"ELEMENT_SET_NO":999,"REV_AT_EPOCH":13910,"BSTAR":4.7895401e-5,"MEAN_MOTION_DOT":3.2e-7,"MEAN_MOTION_DDOT":0},{"OBJECT_NAME":"ONEWEB-0531","OBJECT_ID":"2022-138AK","EPOCH":"2025-09-04T04:11:46.421376","MEAN_MOTION":13.20771356,"ECCENTRICITY":0.00023838,"INCLINATION":87.9283,"RA_OF_ASC_NODE":331.4492,"ARG_OF_PERICENTER":120.2409,"MEAN_ANOMALY":239.8961,"EPHEMERIS_TYPE":0,"CLASSIFICATION_TYPE":"U","NORAD_CAT_ID":54146,"ELEMENT_SET_NO":999,"REV_AT_EPOCH":14155,"BSTAR":-0.00057214186,"MEAN_MOTION_DOT":-2.2e-6,"MEAN_MOTION_DDOT":0},{"OBJECT_NAME":"ONEWEB-0535","OBJECT_ID":"2022-138AL","EPOCH":"2025-09-04T00:32:26.453760","MEAN_MOTION":13.19725017,"ECCENTRICITY":0.00021564,"INCLINATION":87.9283,"RA_OF_ASC_NODE":1.8375,"ARG_OF_PERICENTER":105.3514,"MEAN_ANOMALY":254.7857,"EPHEMERIS_TYPE":0,"CLASSIFICATION_TYPE":"U","NORAD_CAT_ID":54147,"ELEMENT_SET_NO":999,"REV_AT_EPOCH":13909,"BSTAR":0.00024301246,"MEAN_MOTION_DOT":1.1e-6,"MEAN_MOTION_DDOT":0},{"OBJECT_NAME":"ONEWEB-0536","OBJECT_ID":"2022-138AM","EPOCH":"2025-09-04T05:42:40.977792","MEAN_MOTION":13.20770127,"ECCENTRICITY":0.0002317,"INCLINATION":87.9286,"RA_OF_ASC_NODE":331.4835,"ARG_OF_PERICENTER":126.2508,"MEAN_ANOMALY":233.884,"EPHEMERIS_TYPE":0,"CLASSIFICATION_TYPE":"U","NORAD_CAT_ID":54148,"ELEMENT_SET_NO":999,"REV_AT_EPOCH":14155,"BSTAR":0.00010213536,"MEAN_MOTION_DOT":5.5e-7,"MEAN_MOTION_DDOT":0},{"OBJECT_NAME":"ONEWEB-0527","OBJECT_ID":"2022-166A","EPOCH":"2025-09-04T04:34:05.295648","MEAN_MOTION":13.21823673,"ECCENTRICITY":0.00018716,"INCLINATION":87.9228,"RA_OF_ASC_NODE":301.074,"ARG_OF_PERICENTER":96.538,"MEAN_ANOMALY":263.5967,"EPHEMERIS_TYPE":0,"CLASSIFICATION_TYPE":"U","NORAD_CAT_ID":54642,"ELEMENT_SET_NO":999,"REV_AT_EPOCH":13375,"BSTAR":0.0001639987,"MEAN_MOTION_DOT":8.1e-7,"MEAN_MOTION_DDOT":0},{"OBJECT_NAME":"ONEWEB-0528","OBJECT_ID":"2022-166B","EPOCH":"2025-09-04T04:43:09.628608","MEAN_MOTION":13.21829287,"ECCENTRICITY":0.00018068,"INCLINATION":87.923,"RA_OF_ASC_NODE":301.0749,"ARG_OF_PERICENTER":95.706,"MEAN_ANOMALY":264.428,"EPHEMERIS_TYPE":0,"CLASSIFICATION_TYPE":"U","NORAD_CAT_ID":54643,"ELEMENT_SET_NO":999,"REV_AT_EPOCH":13376,"BSTAR":5.1795868e-5,"MEAN_MOTION_DOT":3.4e-7,"MEAN_MOTION_DDOT":0},{"OBJECT_NAME":"ONEWEB-0539","OBJECT_ID":"2022-166C","EPOCH":"2025-09-04T03:46:27.298560","MEAN_MOTION":13.21826676,"ECCENTRICITY":0.00020731,"INCLINATION":87.9218,"RA_OF_ASC_NODE":301.0515,"ARG_OF_PERICENTER":91.1558,"MEAN_ANOMALY":268.9814,"EPHEMERIS_TYPE":0,"CLASSIFICATION_TYPE":"U","NORAD_CAT_ID":54644,"ELEMENT_SET_NO":999,"REV_AT_EPOCH":13375,"BSTAR":0.00020600426,"MEAN_MOTION_DOT":9.8e-7,"MEAN_MOTION_DDOT":0},{"OBJECT_NAME":"ONEWEB-0540","OBJECT_ID":"2022-166D","EPOCH":"2025-09-04T03:55:42.361536","MEAN_MOTION":13.21825354,"ECCENTRICITY":0.00021252,"INCLINATION":87.9229,"RA_OF_ASC_NODE":301.0868,"ARG_OF_PERICENTER":90.8844,"MEAN_ANOMALY":269.2534,"EPHEMERIS_TYPE":0,"CLASSIFICATION_TYPE":"U","NORAD_CAT_ID":54645,"ELEMENT_SET_NO":999,"REV_AT_EPOCH":13374,"BSTAR":-0.00054636347,"MEAN_MOTION_DOT":-2.13e-6,"MEAN_MOTION_DDOT":0},{"OBJECT_NAME":"ONEWEB-0542","OBJECT_ID":"2022-166E","EPOCH":"2025-09-04T04:00:02.549088","MEAN_MOTION":13.21829164,"ECCENTRICITY":0.00023019,"INCLINATION":87.9219,"RA_OF_ASC_NODE":301.0472,"ARG_OF_PERICENTER":91.1718,"MEAN_ANOMALY":268.9679,"EPHEMERIS_TYPE":0,"CLASSIFICATION_TYPE":"U","NORAD_CAT_ID":54646,"ELEMENT_SET_NO":999,"REV_AT_EPOCH":13375,"BSTAR":0.00028475193,"MEAN_MOTION_DOT":1.31e-6,"MEAN_MOTION_DDOT":0}]
